start=new Date('2022-09-15T00:00:00.000Z').valueOf();
sats=[{"ARG_OF_PERICENTER":"83.1008","RA_OF_ASC_NODE":"287.7398","REV_AT_EPOCH":"8954","OBJECT_NAME":"STARLINK-2015","ELEMENT_SET_NO":"999","CLASSIFICATION_TYPE":"U","COUNTRY_CODE":"US","EPHEMERIS_TYPE":"0","REF_FRAME":"TEME","DECAY_DATE":null,"RCS_SIZE":"LARGE","MEAN_ELEMENT_THEORY":"SGP4","FILE":"3574027","EPOCH":"2022-09-14T11:44:25.069056","ECCENTRICITY":"0.00013810","SITE":"AFETR","TLE_LINE1":"1 47638U 21012U   22257.48917904  .00000872  00000-0  77408-4 0  9991","INCLINATION":"53.0540","MEAN_MOTION_DDOT":"0.0000000000000","GP_ID":"212580436","PERIAPSIS":"546.262","BSTAR":"0.00007740800000","MEAN_MOTION_DOT":"0.00000872","MEAN_ANOMALY":"277.0138","OBJECT_TYPE":"PAYLOAD","LAUNCH_DATE":"2021-02-16","NORAD_CAT_ID":"47638","PERIOD":"95.592","MEAN_MOTION":"15.06398508","APOAPSIS":"548.175","CENTER_NAME":"EARTH","TLE_LINE2":"2 47638  53.0540 287.7398 0001381  83.1008 277.0138 15.06398508 89543","TIME_SYSTEM":"UTC","SEMIMAJOR_AXIS":"6925.353","OBJECT_ID":"2021-012U"},{"CENTER_NAME":"EARTH","APOAPSIS":"548.138","MEAN_MOTION":"15.06394323","PERIOD":"95.593","NORAD_CAT_ID":"47639","LAUNCH_DATE":"2021-02-16","OBJECT_TYPE":"PAYLOAD","MEAN_ANOMALY":"271.6556","SEMIMAJOR_AXIS":"6925.366","OBJECT_ID":"2021-012V","TIME_SYSTEM":"UTC","TLE_LINE2":"2 47639  53.0570   1.9536 0001310  88.4583 271.6556 15.06394323 88527","EPOCH":"2022-09-14T16:02:29.988960","FILE":"3574287","MEAN_ELEMENT_THEORY":"SGP4","RCS_SIZE":"LARGE","REF_FRAME":"TEME","DECAY_DATE":null,"COUNTRY_CODE":"US","EPHEMERIS_TYPE":"0","CLASSIFICATION_TYPE":"U","ELEMENT_SET_NO":"999","OBJECT_NAME":"STARLINK-2016","ARG_OF_PERICENTER":"88.4583","RA_OF_ASC_NODE":"1.9536","REV_AT_EPOCH":"8852","MEAN_MOTION_DOT":"0.00000131","BSTAR":"0.00002768900000","GP_ID":"212611852","PERIAPSIS":"546.324","MEAN_MOTION_DDOT":"0.0000000000000","INCLINATION":"53.0570","TLE_LINE1":"1 47639U 21012V   22257.66840265  .00000131  00000-0  27689-4 0  9991","SITE":"AFETR","ECCENTRICITY":"0.00013100"},{"NORAD_CAT_ID":"47640","LAUNCH_DATE":"2021-02-16","OBJECT_TYPE":"PAYLOAD","MEAN_ANOMALY":"276.5262","CENTER_NAME":"EARTH","APOAPSIS":"548.063","MEAN_MOTION":"15.06401834","PERIOD":"95.592","SEMIMAJOR_AXIS":"6925.343","OBJECT_ID":"2021-012W","TLE_LINE2":"2 47640  53.0563  21.6678 0001235  83.5868 276.5262 15.06401834 88271","TIME_SYSTEM":"UTC","ELEMENT_SET_NO":"999","OBJECT_NAME":"STARLINK-2018","RA_OF_ASC_NODE":"21.6678","REV_AT_EPOCH":"8827","ARG_OF_PERICENTER":"83.5868","EPOCH":"2022-09-14T17:30:04.338432","FILE":"3574287","MEAN_ELEMENT_THEORY":"SGP4","RCS_SIZE":"LARGE","REF_FRAME":"TEME","DECAY_DATE":null,"COUNTRY_CODE":"US","EPHEMERIS_TYPE":"0","CLASSIFICATION_TYPE":"U","INCLINATION":"53.0563","TLE_LINE1":"1 47640U 21012W   22257.72921688  .00000229  00000-0  34292-4 0  9995","SITE":"AFETR","ECCENTRICITY":"0.00012350","MEAN_MOTION_DOT":"0.00000229","BSTAR":"0.00003429200000","GP_ID":"212612094","PERIAPSIS":"546.353","MEAN_MOTION_DDOT":"0.0000000000000"},{"BSTAR":"0.00010430000000","MEAN_MOTION_DOT":"0.00001273","GP_ID":"212580186","PERIAPSIS":"546.271","MEAN_MOTION_DDOT":"0.0000000000000","INCLINATION":"53.0519","SITE":"AFETR","TLE_LINE1":"1 47641U 21012X   22257.47442645  .00001273  00000-0  10430-3 0  9996","ECCENTRICITY":"0.00013360","MEAN_ELEMENT_THEORY":"SGP4","FILE":"3574027","EPOCH":"2022-09-14T11:23:10.445280","DECAY_DATE":null,"REF_FRAME":"TEME","RCS_SIZE":"LARGE","COUNTRY_CODE":"US","EPHEMERIS_TYPE":"0","CLASSIFICATION_TYPE":"U","ELEMENT_SET_NO":"999","OBJECT_NAME":"STARLINK-2019","REV_AT_EPOCH":"8954","RA_OF_ASC_NODE":"287.8263","ARG_OF_PERICENTER":"85.7936","OBJECT_ID":"2021-012X","SEMIMAJOR_AXIS":"6925.331","TIME_SYSTEM":"UTC","TLE_LINE2":"2 47641  53.0519 287.8263 0001336  85.7936 274.3205 15.06405632 89545","APOAPSIS":"548.122","CENTER_NAME":"EARTH","PERIOD":"95.592","MEAN_MOTION":"15.06405632","LAUNCH_DATE":"2021-02-16","NORAD_CAT_ID":"47641","OBJECT_TYPE":"PAYLOAD","MEAN_ANOMALY":"274.3205"},{"MEAN_MOTION_DDOT":"0.0000000000000","MEAN_MOTION_DOT":"0.00000562","BSTAR":"0.00005661000000","GP_ID":"212580936","PERIAPSIS":"546.201","TLE_LINE1":"1 47642U 21012Y   22257.53616775  .00000562  00000-0  56610-4 0  9992","SITE":"AFETR","ECCENTRICITY":"0.00014680","INCLINATION":"53.0557","COUNTRY_CODE":"US","EPHEMERIS_TYPE":"0","CLASSIFICATION_TYPE":"U","EPOCH":"2022-09-14T12:52:04.893600","MEAN_ELEMENT_THEORY":"SGP4","FILE":"3574027","RCS_SIZE":"LARGE","DECAY_DATE":null,"REF_FRAME":"TEME","ARG_OF_PERICENTER":"89.5186","RA_OF_ASC_NODE":"17.5246","REV_AT_EPOCH":"8830","ELEMENT_SET_NO":"999","OBJECT_NAME":"STARLINK-2020","TIME_SYSTEM":"UTC","TLE_LINE2":"2 47642  53.0557  17.5246 0001468  89.5186 270.5971 15.06398554 88307","SEMIMAJOR_AXIS":"6925.353","OBJECT_ID":"2021-012Y","APOAPSIS":"548.235","CENTER_NAME":"EARTH","MEAN_MOTION":"15.06398554","PERIOD":"95.592","MEAN_ANOMALY":"270.5971","NORAD_CAT_ID":"47642","LAUNCH_DATE":"2021-02-16","OBJECT_TYPE":"PAYLOAD"},{"CLASSIFICATION_TYPE":"U","COUNTRY_CODE":"US","EPHEMERIS_TYPE":"0","REF_FRAME":"TEME","DECAY_DATE":null,"RCS_SIZE":"LARGE","FILE":"3574287","MEAN_ELEMENT_THEORY":"SGP4","EPOCH":"2022-09-14T16:23:44.180736","RA_OF_ASC_NODE":"1.8903","ARG_OF_PERICENTER":"82.6570","REV_AT_EPOCH":"8854","OBJECT_NAME":"STARLINK-2022","ELEMENT_SET_NO":"999","MEAN_MOTION_DDOT":"0.0000000000000","GP_ID":"212612352","PERIAPSIS":"546.395","BSTAR":"-0.00002582200000","MEAN_MOTION_DOT":"-0.00000666","ECCENTRICITY":"0.00012040","SITE":"AFETR","TLE_LINE1":"1 47643U 21012Z   22257.68315024 -.00000666  00000-0 -25822-4 0  9990","INCLINATION":"53.0544","PERIOD":"95.592","MEAN_MOTION":"15.06394905","CENTER_NAME":"EARTH","APOAPSIS":"548.063","MEAN_ANOMALY":"277.4555","OBJECT_TYPE":"PAYLOAD","LAUNCH_DATE":"2021-02-16","NORAD_CAT_ID":"47643","TIME_SYSTEM":"UTC","TLE_LINE2":"2 47643  53.0544   1.8903 0001204  82.6570 277.4555 15.06394905 88545","OBJECT_ID":"2021-012Z","SEMIMAJOR_AXIS":"6925.364"},{"CENTER_NAME":"EARTH","APOAPSIS":"548.170","MEAN_MOTION":"15.06409373","PERIOD":"95.592","MEAN_ANOMALY":"279.2883","NORAD_CAT_ID":"47644","LAUNCH_DATE":"2021-02-16","OBJECT_TYPE":"PAYLOAD","TLE_LINE2":"2 47644  53.0569  20.9354 0001422  80.8267 279.2883 15.06409373 88304","TIME_SYSTEM":"UTC","OBJECT_ID":"2021-012AA","SEMIMAJOR_AXIS":"6925.320","EPHEMERIS_TYPE":"0","COUNTRY_CODE":"US","CLASSIFICATION_TYPE":"U","EPOCH":"2022-09-14T21:28:54.848928","FILE":"3574287","MEAN_ELEMENT_THEORY":"SGP4","RCS_SIZE":"LARGE","DECAY_DATE":null,"REF_FRAME":"TEME","ARG_OF_PERICENTER":"80.8267","RA_OF_ASC_NODE":"20.9354","REV_AT_EPOCH":"8830","ELEMENT_SET_NO":"999","OBJECT_NAME":"STARLINK-2026","MEAN_MOTION_DDOT":"0.0000000000000","MEAN_MOTION_DOT":"0.00000650","BSTAR":"0.00006251600000","GP_ID":"212612594","PERIAPSIS":"546.200","TLE_LINE1":"1 47644U 21012AA  22257.89507927  .00000650  00000-0  62516-4 0  9991","SITE":"AFETR","ECCENTRICITY":"0.00014220","INCLINATION":"53.0569"},{"PERIOD":"95.592","MEAN_MOTION":"15.06407731","APOAPSIS":"548.130","CENTER_NAME":"EARTH","MEAN_ANOMALY":"280.4268","OBJECT_TYPE":"PAYLOAD","LAUNCH_DATE":"2021-02-16","NORAD_CAT_ID":"47645","TIME_SYSTEM":"UTC","TLE_LINE2":"2 47645  53.0561 352.2683 0001358  79.6874 280.4268 15.06407731 88656","OBJECT_ID":"2021-012AB","SEMIMAJOR_AXIS":"6925.325","CLASSIFICATION_TYPE":"U","EPHEMERIS_TYPE":"0","COUNTRY_CODE":"US","REF_FRAME":"TEME","DECAY_DATE":null,"RCS_SIZE":"LARGE","FILE":"3574287","MEAN_ELEMENT_THEORY":"SGP4","EPOCH":"2022-09-14T15:37:19.257312","RA_OF_ASC_NODE":"352.2683","REV_AT_EPOCH":"8865","ARG_OF_PERICENTER":"79.6874","OBJECT_NAME":"STARLINK-2027","ELEMENT_SET_NO":"999","MEAN_MOTION_DDOT":"0.0000000000000","PERIAPSIS":"546.249","GP_ID":"212611354","BSTAR":"0.00032449000000","MEAN_MOTION_DOT":"0.00004556","ECCENTRICITY":"0.00013580","SITE":"AFETR","TLE_LINE1":"1 47645U 21012AB  22257.65091733  .00004556  00000-0  32449-3 0  9999","INCLINATION":"53.0561"},{"SEMIMAJOR_AXIS":"6925.373","OBJECT_ID":"2021-012AC","TIME_SYSTEM":"UTC","TLE_LINE2":"2 47646  53.0544 318.2263 0001348  89.3311 270.7833 15.06392106 89118","CENTER_NAME":"EARTH","APOAPSIS":"548.171","MEAN_MOTION":"15.06392106","PERIOD":"95.593","NORAD_CAT_ID":"47646","LAUNCH_DATE":"2021-02-16","OBJECT_TYPE":"PAYLOAD","MEAN_ANOMALY":"270.7833","MEAN_MOTION_DOT":"0.00000313","BSTAR":"0.00003993600000","PERIAPSIS":"546.304","GP_ID":"212580437","MEAN_MOTION_DDOT":"0.0000000000000","INCLINATION":"53.0544","TLE_LINE1":"1 47646U 21012AC  22257.43852481  .00000313  00000-0  39936-4 0  9997","SITE":"AFETR","ECCENTRICITY":"0.00013480","EPOCH":"2022-09-14T10:31:28.543584","FILE":"3574027","MEAN_ELEMENT_THEORY":"SGP4","RCS_SIZE":"LARGE","DECAY_DATE":null,"REF_FRAME":"TEME","COUNTRY_CODE":"US","EPHEMERIS_TYPE":"0","CLASSIFICATION_TYPE":"U","ELEMENT_SET_NO":"999","OBJECT_NAME":"STARLINK-2028","RA_OF_ASC_NODE":"318.2263","REV_AT_EPOCH":"8911","ARG_OF_PERICENTER":"89.3311"},{"OBJECT_ID":"2021-012AD","SEMIMAJOR_AXIS":"6925.367","TLE_LINE2":"2 47647  53.0557  21.4794 0001498  77.4681 282.6476 15.06394126 88285","TIME_SYSTEM":"UTC","LAUNCH_DATE":"2021-02-16","NORAD_CAT_ID":"47647","OBJECT_TYPE":"PAYLOAD","MEAN_ANOMALY":"282.6476","APOAPSIS":"548.269","CENTER_NAME":"EARTH","PERIOD":"95.593","MEAN_MOTION":"15.06394126","INCLINATION":"53.0557","SITE":"AFETR","TLE_LINE1":"1 47647U 21012AD  22257.77345791 -.00001485  00000-0 -80802-4 0  9997","ECCENTRICITY":"0.00014980","BSTAR":"-0.00008080200000","MEAN_MOTION_DOT":"-0.00001485","GP_ID":"212611853","PERIAPSIS":"546.194","MEAN_MOTION_DDOT":"0.0000000000000","ELEMENT_SET_NO":"999","OBJECT_NAME":"STARLINK-2030","RA_OF_ASC_NODE":"21.4794","ARG_OF_PERICENTER":"77.4681","REV_AT_EPOCH":"8828","FILE":"3574287","MEAN_ELEMENT_THEORY":"SGP4","EPOCH":"2022-09-14T18:33:46.763424","DECAY_DATE":null,"REF_FRAME":"TEME","RCS_SIZE":"LARGE","COUNTRY_CODE":"US","EPHEMERIS_TYPE":"0","CLASSIFICATION_TYPE":"U"}];
